{
  "links" : {
    "next" : "https://api.nasa.gov/neo/rest/v1/feed?start_date=1995-05-16&end_date=1995-05-16&detailed=true&api_key=t0TVs3DtDT2H8Oy2Zy8m2eVrNsAVKAexjcZXUckd",
    "prev" : "https://api.nasa.gov/neo/rest/v1/feed?start_date=1995-05-14&end_date=1995-05-14&detailed=true&api_key=t0TVs3DtDT2H8Oy2Zy8m2eVrNsAVKAexjcZXUckd",
    "self" : "https://api.nasa.gov/neo/rest/v1/feed?start_date=1995-05-15&end_date=1995-05-15&detailed=true&api_key=t0TVs3DtDT2H8Oy2Zy8m2eVrNsAVKAexjcZXUckd"
  },
  "element_count" : 6,
  "near_earth_objects" : {
    "1995-05-15" : [ {
      "links" : {
        "self" : "https://api.nasa.gov/neo/rest/v1/neo/2088959?api_key=t0TVs3DtDT2H8Oy2Zy8m2eVrNsAVKAexjcZXUckd"
      },
      "neo_reference_id" : "2088959",
      "name" : "88959 (2001 TZ44)",
      "nasa_jpl_url" : "http://ssd.jpl.nasa.gov/sbdb.cgi?sstr=2088959",
      "absolute_magnitude_h" : 17.4,
      "estimated_diameter" : {
        "kilometers" : {
          "estimated_diameter_min" : 0.8801465209,
          "estimated_diameter_max" : 1.9680674509
        },
        "meters" : {
          "estimated_diameter_min" : 880.1465209007,
          "estimated_diameter_max" : 1968.067450894
        },
        "miles" : {
          "estimated_diameter_min" : 0.5468975238,
          "estimated_diameter_max" : 1.22290004
        },
        "feet" : {
          "estimated_diameter_min" : 2887.6199116319,
          "estimated_diameter_max" : 6456.914415591
        }
      },
      "is_potentially_hazardous_asteroid" : false,
      "close_approach_data" : [ {
        "close_approach_date" : "1995-05-15",
        "epoch_date_close_approach" : 800521200000,
        "relative_velocity" : {
          "kilometers_per_second" : "36.9027872256",
          "kilometers_per_hour" : "132850.0340120192",
          "miles_per_hour" : "82547.8447448572"
        },
        "miss_distance" : {
          "astronomical" : "0.3090826956",
          "lunar" : "120.2331619263",
          "kilometers" : "46238112",
          "miles" : "28731030"
        },
        "orbiting_body" : "Earth"
      } ],
      "orbital_data" : {
        "orbit_id" : "42",
        "orbit_determination_date" : "2017-04-06 09:28:21",
        "orbit_uncertainty" : "0",
        "minimum_orbit_intersection" : ".0508661",
        "jupiter_tisserand_invariant" : "3.580",
        "epoch_osculation" : "2458000.5",
        "eccentricity" : ".5639780444598699",
        "semi_major_axis" : "1.723590507735431",
        "inclination" : "53.82827282376167",
        "ascending_node_longitude" : "38.98727038019353",
        "orbital_period" : "826.5127687372666",
        "perihelion_distance" : ".7515233037332082",
        "perihelion_argument" : "114.9699500537067",
        "aphelion_distance" : "2.695657711737653",
        "perihelion_time" : "2458079.943265856825",
        "mean_anomaly" : "325.3972971861633",
        "mean_motion" : ".4355649587241131",
        "equinox" : "J2000"
      }
    }, {
      "links" : {
        "self" : "https://api.nasa.gov/neo/rest/v1/neo/3277704?api_key=t0TVs3DtDT2H8Oy2Zy8m2eVrNsAVKAexjcZXUckd"
      },
      "neo_reference_id" : "3277704",
      "name" : "(2005 JR5)",
      "nasa_jpl_url" : "http://ssd.jpl.nasa.gov/sbdb.cgi?sstr=3277704",
      "absolute_magnitude_h" : 22.1,
      "estimated_diameter" : {
        "kilometers" : {
          "estimated_diameter_min" : 0.1010543415,
          "estimated_diameter_max" : 0.2259643771
        },
        "meters" : {
          "estimated_diameter_min" : 101.054341542,
          "estimated_diameter_max" : 225.9643771094
        },
        "miles" : {
          "estimated_diameter_min" : 0.0627922373,
          "estimated_diameter_max" : 0.140407711
        },
        "feet" : {
          "estimated_diameter_min" : 331.5431259047,
          "estimated_diameter_max" : 741.3529669956
        }
      },
      "is_potentially_hazardous_asteroid" : false,
      "close_approach_data" : [ {
        "close_approach_date" : "1995-05-15",
        "epoch_date_close_approach" : 800521200000,
        "relative_velocity" : {
          "kilometers_per_second" : "15.7970850712",
          "kilometers_per_hour" : "56869.5062562905",
          "miles_per_hour" : "35336.4995957489"
        },
        "miss_distance" : {
          "astronomical" : "0.1834604628",
          "lunar" : "71.3661193848",
          "kilometers" : "27445294",
          "miles" : "17053716"
        },
        "orbiting_body" : "Earth"
      } ],
      "orbital_data" : {
        "orbit_id" : "18",
        "orbit_determination_date" : "2017-04-06 09:11:00",
        "orbit_uncertainty" : "0",
        "minimum_orbit_intersection" : ".0549144",
        "jupiter_tisserand_invariant" : "5.293",
        "epoch_osculation" : "2458000.5",
        "eccentricity" : ".1538369907726766",
        "semi_major_axis" : "1.157817149428843",
        "inclination" : "31.0424516089619",
        "ascending_node_longitude" : "49.31999676585112",
        "orbital_period" : "455.0492405086502",
        "perihelion_distance" : ".9797020432957113",
        "perihelion_argument" : "246.8332902517551",
        "aphelion_distance" : "1.335932255561975",
        "perihelion_time" : "2458117.763610536657",
        "mean_anomaly" : "267.2300401028926",
        "mean_motion" : ".7911231751482434",
        "equinox" : "J2000"
      }
    }, {
      "links" : {
        "self" : "https://api.nasa.gov/neo/rest/v1/neo/3459306?api_key=t0TVs3DtDT2H8Oy2Zy8m2eVrNsAVKAexjcZXUckd"
      },
      "neo_reference_id" : "3459306",
      "name" : "(2009 HD82)",
      "nasa_jpl_url" : "http://ssd.jpl.nasa.gov/sbdb.cgi?sstr=3459306",
      "absolute_magnitude_h" : 21.6,
      "estimated_diameter" : {
        "kilometers" : {
          "estimated_diameter_min" : 0.1272198785,
          "estimated_diameter_max" : 0.2844722965
        },
        "meters" : {
          "estimated_diameter_min" : 127.2198785394,
          "estimated_diameter_max" : 284.4722965033
        },
        "miles" : {
          "estimated_diameter_min" : 0.0790507431,
          "estimated_diameter_max" : 0.1767628354
        },
        "feet" : {
          "estimated_diameter_min" : 417.3880663071,
          "estimated_diameter_max" : 933.3080892598
        }
      },
      "is_potentially_hazardous_asteroid" : false,
      "close_approach_data" : [ {
        "close_approach_date" : "1995-05-15",
        "epoch_date_close_approach" : 800521200000,
        "relative_velocity" : {
          "kilometers_per_second" : "20.2894533769",
          "kilometers_per_hour" : "73042.032156736",
          "miles_per_hour" : "45385.478258723"
        },
        "miss_distance" : {
          "astronomical" : "0.2034854101",
          "lunar" : "79.1558227539",
          "kilometers" : "30440984",
          "miles" : "18915152"
        },
        "orbiting_body" : "Earth"
      } ],
      "orbital_data" : {
        "orbit_id" : "30",
        "orbit_determination_date" : "2017-04-06 09:00:38",
        "orbit_uncertainty" : "0",
        "minimum_orbit_intersection" : ".0812573",
        "jupiter_tisserand_invariant" : "5.010",
        "epoch_osculation" : "2458000.5",
        "eccentricity" : ".4765100329390353",
        "semi_major_axis" : "1.253468714046949",
        "inclination" : "5.80092536793395",
        "ascending_node_longitude" : "191.2587796617734",
        "orbital_period" : "512.5882832519676",
        "perihelion_distance" : ".6561782958283874",
        "perihelion_argument" : "147.9375112842552",
        "aphelion_distance" : "1.850759132265511",
        "perihelion_time" : "2458112.460028538879",
        "mean_anomaly" : "281.3684518532314",
        "mean_motion" : ".7023180430814464",
        "equinox" : "J2000"
      }
    } ]
  }
}